[
    {
        "Altitude(m)": 607910.9890522348,
        "Argument of Periapsis(deg)": 0.0,
        "Eccentricity": 0.0,
        "Inclination(deg)": 60.0,
        "Latitude(deg)": -14.292831543618318,
        "Longitude(deg)": 78.44266037654727,
        "Mean Anomaly(deg)": -163.6364,
        "RAAN(deg)": 350.0,
        "Satellite Name": "Test1 1552",
        "Satellite Number": 1552,
        "Semi-Major Axis(m)": 6980739.136638005,
        "Time(s)": 0
    },
    {
        "Altitude(m)": 608060.2219194433,
        "Argument of Periapsis(deg)": 0.00010418945913296404,
        "Eccentricity": 0.0,
        "Inclination(deg)": 60.0,
        "Latitude(deg)": -14.826492696095503,
        "Longitude(deg)": 78.73127016967742,
        "Mean Anomaly(deg)": -163.01629385453816,
        "RAAN(deg)": 349.99957995086027,
        "Satellite Name": "Test1 1552",
        "Satellite Number": 1552,
        "Semi-Major Axis(m)": 6980739.136638005,
        "Time(s)": 10
    }
]